STARLINK-1434           
1 45712U 20035BH  26068.24137979  .00054112  00000+0  20295-2 0  9995
2 45712  53.0547  22.1128 0005343  88.0400 272.1210 15.26724568319325
STARLINK-30796          
1 58189U 23167Q   26068.19933713 -.00001280  00000+0 -37025-4 0  9991
2 58189  43.0052 145.8654 0001581 239.7068 120.3627 15.27559241130916
